{
    "links": {
        "self": "http://www.neowsapp.com/rest/v1/neo/3837649?api_key=iIulBulltgU6a56xZRHN4H3l9WmuAYTsLGpBGhQ2"
    },
    "id": "3837649",
    "neo_reference_id": "3837649",
    "name": "(2019 AX4)",
    "designation": "2019 AX4",
    "nasa_jpl_url": "http://ssd.jpl.nasa.gov/sbdb.cgi?sstr=3837649",
    "absolute_magnitude_h": 24.3,
    "estimated_diameter": {
        "kilometers": {
            "estimated_diameter_min": 0.0366906138,
            "estimated_diameter_max": 0.0820427065
        },
        "meters": {
            "estimated_diameter_min": 36.6906137531,
            "estimated_diameter_max": 82.0427064882
        },
        "miles": {
            "estimated_diameter_min": 0.0227984834,
            "estimated_diameter_max": 0.0509789586
        },
        "feet": {
            "estimated_diameter_min": 120.3760332259,
            "estimated_diameter_max": 269.1689931548
        }
    },
    "is_potentially_hazardous_asteroid": false,
    "close_approach_data": [
        {
            "close_approach_date": "2018-12-24",
            "close_approach_date_full": "2018-Dec-24 11:13",
            "epoch_date_close_approach": 1545649980000,
            "relative_velocity": {
                "kilometers_per_second": "10.5562151989",
                "kilometers_per_hour": "38002.3747159702",
                "miles_per_hour": "23613.197778376"
            },
            "miss_distance": {
                "astronomical": "0.0282099425",
                "lunar": "10.9736676325",
                "kilometers": "4220147.310822475",
                "miles": "2622277.942301155"
            },
            "orbiting_body": "Earth"
        },
        {
            "close_approach_date": "2082-08-09",
            "close_approach_date_full": "2082-Aug-09 11:54",
            "epoch_date_close_approach": 3553502040000,
            "relative_velocity": {
                "kilometers_per_second": "22.3854266436",
                "kilometers_per_hour": "80587.5359168268",
                "miles_per_hour": "50073.9608589861"
            },
            "miss_distance": {
                "astronomical": "0.3861532436",
                "lunar": "150.2136117604",
                "kilometers": "57767702.736151132",
                "miles": "35895185.9983523416"
            },
            "orbiting_body": "Earth"
        }
    ],
    "orbital_data": {
        "orbit_id": "3",
        "orbit_determination_date": "2019-01-12 06:55:14",
        "first_observation_date": "2019-01-05",
        "last_observation_date": "2019-01-12",
        "data_arc_in_days": 7,
        "observations_used": 20,
        "orbit_uncertainty": "9",
        "minimum_orbit_intersection": ".0227788",
        "jupiter_tisserand_invariant": "4.194",
        "epoch_osculation": "2458489.5",
        "eccentricity": ".4755869848138162",
        "semi_major_axis": "1.619451815003947",
        "inclination": "2.313565798241576",
        "ascending_node_longitude": "239.6474819187077",
        "orbital_period": "752.7494948650866",
        "perihelion_distance": ".849261609254958",
        "perihelion_argument": "160.597295850963",
        "aphelion_distance": "2.389642020752937",
        "perihelion_time": "2458438.862946131374",
        "mean_anomaly": "24.21700647699878",
        "mean_motion": ".4782467506863248",
        "equinox": "J2000",
        "orbit_class": {
            "orbit_class_type": "APO",
            "orbit_class_description": "Near-Earth asteroid orbits which cross the Earth’s orbit similar to that of 1862 Apollo",
            "orbit_class_range": "a (semi-major axis) > 1.0 AU; q (perihelion) < 1.017 AU"
        }
    },
    "is_sentry_object": false
}